KZ-11 R/B               
1 69628U 26138H   26193.90834216  .00780150  97501-5  75497-3 0  9998
2 69628  55.1520 167.7492 0377051 143.6026 219.1292 15.43010363  3894
CENTISPACE-1 GROUP 05 O*
1 69636U 26138J   26194.40472368 -.00000256  00000+0 -51944-4 0  9997
2 69636  55.1383 184.3032 0009547 341.3483  18.7141 14.15842380  3707
VICTUS HAZE PUMA        
1 69646U 26142A   26194.66617709  .00002127  00000+0  98816-4 0  9997
2 69646  97.4471  91.9874 0025032 271.5686  88.2682 15.20841534  3695
HOKUSHIN-1              
1 69648U 98067YH  26193.97333506  .00017654  00000+0  30626-3 0  9992
2 69648  51.6302 172.2596 0006128 322.5692  37.4870 15.50931223  3654
STARLINK-37656          
1 69649U 26143A   26195.11839176  .00032667  00000+0  59936-3 0  9997
2 69649  97.2847 238.9913 0001207 115.9221 244.2154 15.49210798  4719
STARLINK-37646          
1 69650U 26143B   26195.16668980  .00008905  00000+0  16501-3 0  9996
2 69650  97.2850 239.2184 0001560  76.3088 243.8317 15.49223003  4799
STARLINK-37749          
1 69651U 26143C   26195.16668980 -.00007543  00000+0 -13712-3 0  9997
2 69651  97.2846 239.1992 0000687 120.6930 161.1593 15.49200088  4795
STARLINK-37819          
1 69652U 26143D   26195.16668980  .00008598  00000+0  15950-3 0  9993
2 69652  97.2841 239.1740 0001314  73.5933 143.7534 15.49202594  4794
STARLINK-37729          
1 69653U 26143E   26195.11609538  .00290499  00000+0  12954-2 0  9996
2 69653  97.2834 239.4551 0001873 248.7422 111.3648 15.83515953  4745
STARLINK-37838          
1 69654U 26143F   26195.16668980  .00014250  00000+0  26303-3 0  9991
2 69654  97.2841 239.2442 0001340  59.5951 322.7689 15.49206929  4795
STARLINK-37884          
1 69655U 26143G   26195.07147931  .00022687  00000+0  41737-3 0  9991
2 69655  97.2847 239.0561 0000802  80.2614 279.8728 15.49205436  4711
STARLINK-37876          
1 69656U 26143H   26195.16668980  .00011293  00000+0  20887-3 0  9998
2 69656  97.2842 239.2436 0001293  91.4125 288.5417 15.49206763  4699
STARLINK-37784          
1 69657U 26143J   26195.16668980  .00004134  00000+0  77594-4 0  9993
2 69657  97.2841 239.1707 0001380  79.3084 133.0945 15.49201711  4693
STARLINK-37851          
1 69658U 26143K   26195.16668980  .00011437  00000+0  21151-3 0  9995
2 69658  97.2842 239.2380 0000847  91.6016 276.3525 15.49208698  4687
STARLINK-37229          
1 69659U 26143L   26195.16668980 -.00000559  00000+0 -86190-5 0  9997
2 69659  97.2845 239.1901 0001447  87.0150 172.2798 15.49200671  4739
STARLINK-37556          
1 69660U 26143M   26195.16668980 -.02536835  00000+0 -52371-1 0  9992
2 69660  97.2841 239.2166 0001450 107.8240 215.3993 15.49350121  4738
STARLINK-37867          
1 69661U 26143N   26195.16668980 -.00002231  00000+0 -39360-4 0  9995
2 69661  97.2840 239.2368 0001743  89.3459 277.1311 15.49200354  4690
STARLINK-37852          
1 69662U 26143P   26195.16668980  .00005412  00000+0  10107-3 0  9995
2 69662  97.2841 239.1608 0001285  83.6169 105.8729 15.49197628  4693
STARLINK-37554          
1 69663U 26143Q   26195.16668980 -.00002282  00000+0 -40287-4 0  9993
2 69663  97.2850 239.2132 0000942  86.1863 227.5582 15.49205293  4737
STARLINK-37830          
1 69664U 26143R   26195.16668980 -.00002874  00000+0 -51173-4 0  9997
2 69664  97.2842 239.1768 0001653  83.2859 146.2139 15.49201361  4687
STARLINK-37837          
1 69665U 26143S   26195.16668980 -.02913525  00000+0 -78868-1 0  9991
2 69665  97.2847 239.2404 0001169  64.1051 286.7224 15.41379720  4698
STARLINK-37943          
1 69666U 26143T   26195.16668980  .00001644  00000+0  31865-4 0  9997
2 69666  97.2845 239.1791 0001613  84.0648 148.3979 15.49200351  4693
STARLINK-37941          
1 69667U 26143U   26195.16668980 -.00000654  00000+0 -10357-4 0  9993
2 69667  97.2848 239.2082 0001092  77.4036 225.4278 15.49203629  4699
STARLINK-37930          
1 69668U 26143V   26195.16668980 -.00006603  00000+0 -11978-3 0  9993
2 69668  97.2848 239.2093 0001194  82.6276 223.2039 15.49203293  4686
STARLINK-37945          
1 69669U 26143W   26195.16668980 -.00002867  00000+0 -51053-4 0  9991
2 69669  97.2840 239.2399 0001296  94.8852 282.8371 15.49201822  4693
STARLINK-37948          
1 69670U 26143X   26195.08225200  .00040454  00000+0  74127-3 0  9996
2 69670  97.2861 239.0445 0000731 104.5590 255.5743 15.49204330  4641
STARLINK-37949          
1 69671U 26143Y   26195.16668980 -.00005660  00000+0 -10243-3 0  9993
2 69671  97.2843 239.1844 0000721  81.0938 165.6321 15.49201971  4696
STARLINK-37946          
1 69672U 26143Z   26195.16668980  .00003883  00000+0  72983-4 0  9997
2 69672  97.2848 239.2196 0001254  76.7100 247.6627 15.49205710  4692
TJS-26A                 
1 69674U 26144A   26193.29904564 -.00000341  00000+0  00000+0 0  9996
2 69674   6.9538 323.2302 0004208 347.4913 194.6526  1.00274367   198
CZ-7A R/B               
1 69675U 26144B   26194.53273787  .00617247 -11430-5  71481-3 0  9990
2 69675  19.4489 315.8158 7113301 195.2718 120.0878  2.57141579   524
