OBJECT_NAME,OBJECT_ID,EPOCH,MEAN_MOTION,ECCENTRICITY,INCLINATION,RA_OF_ASC_NODE,ARG_OF_PERICENTER,MEAN_ANOMALY,EPHEMERIS_TYPE,CLASSIFICATION_TYPE,NORAD_CAT_ID,ELEMENT_SET_NO,REV_AT_EPOCH,BSTAR,MEAN_MOTION_DOT,MEAN_MOTION_DDOT
KZ-11 R/B,2026-138H,2026-07-12T21:48:00.762624,15.43010363,.03770511,55.1520,167.7492,143.6026,219.1292,0,U,69628,999,389,.75497354E-3,.78015E-2,.9750105E-5
CENTISPACE-1 GROUP 05 OBJECT J,2026-138J,2026-07-13T09:42:48.125952,14.15842380,.00095471,55.1383,184.3032,341.3483,18.7141,0,U,69636,999,370,-.51944164E-4,-.256E-5,0
VICTUS HAZE PUMA,2026-142A,2026-07-13T15:59:17.700576,15.20841534,.0025032,97.4471,91.9874,271.5686,88.2682,0,U,69646,999,369,.98816E-4,.2127E-4,0
HOKUSHIN-1,1998-067YH,2026-07-12T23:21:36.149184,15.50931223,.00061287,51.6302,172.2596,322.5692,37.4870,0,U,69648,999,365,.30625514E-3,.17654E-3,0
STARLINK-37656,2026-143A,2026-07-14T02:50:29.048064,15.49210798,.0001207,97.2847,238.9913,115.9221,244.2154,0,U,69649,999,471,.59936E-3,.32667E-3,0
STARLINK-37646,2026-143B,2026-07-14T04:00:01.998720,15.49223003,.000156,97.2850,239.2184,76.3088,243.8317,0,U,69650,999,479,.16501E-3,.8905E-4,0
STARLINK-37749,2026-143C,2026-07-14T04:00:01.998720,15.49200088,.0000687,97.2846,239.1992,120.6930,161.1593,0,U,69651,999,479,-.13712E-3,-.7543E-4,0
STARLINK-37819,2026-143D,2026-07-14T04:00:01.998720,15.49202594,.0001314,97.2841,239.1740,73.5933,143.7534,0,U,69652,999,479,.1595E-3,.8598E-4,0
STARLINK-37729,2026-143E,2026-07-14T02:47:10.640832,15.83515953,.0001873,97.2834,239.4551,248.7422,111.3648,0,U,69653,999,474,.12954E-2,.290499E-2,0
STARLINK-37838,2026-143F,2026-07-14T04:00:01.998720,15.49206929,.000134,97.2841,239.2442,59.5951,322.7689,0,U,69654,999,479,.26303E-3,.1425E-3,0
STARLINK-37884,2026-143G,2026-07-14T01:42:55.812384,15.49205436,.0000802,97.2847,239.0561,80.2614,279.8728,0,U,69655,999,471,.41737E-3,.22687E-3,0
STARLINK-37876,2026-143H,2026-07-14T04:00:01.998720,15.49206763,.0001293,97.2842,239.2436,91.4125,288.5417,0,U,69656,999,469,.20887E-3,.11293E-3,0
STARLINK-37784,2026-143J,2026-07-14T04:00:01.998720,15.49201711,.000138,97.2841,239.1707,79.3084,133.0945,0,U,69657,999,469,.77594E-4,.4134E-4,0
STARLINK-37851,2026-143K,2026-07-14T04:00:01.998720,15.49208698,.0000847,97.2842,239.2380,91.6016,276.3525,0,U,69658,999,468,.21151E-3,.11437E-3,0
STARLINK-37229,2026-143L,2026-07-14T04:00:01.998720,15.49200671,.0001447,97.2845,239.1901,87.0150,172.2798,0,U,69659,999,473,-.8619E-5,-.559E-5,0
STARLINK-37556,2026-143M,2026-07-14T04:00:01.998720,15.49350121,.000145,97.2841,239.2166,107.8240,215.3993,0,U,69660,999,473,-.52371E-1,-.2536835E-1,0
STARLINK-37867,2026-143N,2026-07-14T04:00:01.998720,15.49200354,.0001743,97.2840,239.2368,89.3459,277.1311,0,U,69661,999,469,-.3936E-4,-.2231E-4,0
STARLINK-37852,2026-143P,2026-07-14T04:00:01.998720,15.49197628,.0001285,97.2841,239.1608,83.6169,105.8729,0,U,69662,999,469,.10107E-3,.5412E-4,0
STARLINK-37554,2026-143Q,2026-07-14T04:00:01.998720,15.49205293,.0000942,97.2850,239.2132,86.1863,227.5582,0,U,69663,999,473,-.40287E-4,-.2282E-4,0
STARLINK-37830,2026-143R,2026-07-14T04:00:01.998720,15.49201361,.0001653,97.2842,239.1768,83.2859,146.2139,0,U,69664,999,468,-.51173E-4,-.2874E-4,0
STARLINK-37837,2026-143S,2026-07-14T04:00:01.998720,15.41379720,.0001169,97.2847,239.2404,64.1051,286.7224,0,U,69665,999,469,-.78868E-1,-.2913525E-1,0
STARLINK-37943,2026-143T,2026-07-14T04:00:01.998720,15.49200351,.0001613,97.2845,239.1791,84.0648,148.3979,0,U,69666,999,469,.31865E-4,.1644E-4,0
STARLINK-37941,2026-143U,2026-07-14T04:00:01.998720,15.49203629,.0001092,97.2848,239.2082,77.4036,225.4278,0,U,69667,999,469,-.10357E-4,-.654E-5,0
STARLINK-37930,2026-143V,2026-07-14T04:00:01.998720,15.49203293,.0001194,97.2848,239.2093,82.6276,223.2039,0,U,69668,999,468,-.11978E-3,-.6603E-4,0
STARLINK-37945,2026-143W,2026-07-14T04:00:01.998720,15.49201822,.0001296,97.2840,239.2399,94.8852,282.8371,0,U,69669,999,469,-.51053E-4,-.2867E-4,0
STARLINK-37948,2026-143X,2026-07-14T01:58:26.572800,15.49204330,.0000731,97.2861,239.0445,104.5590,255.5743,0,U,69670,999,464,.74127E-3,.40454E-3,0
STARLINK-37949,2026-143Y,2026-07-14T04:00:01.998720,15.49201971,.0000721,97.2843,239.1844,81.0938,165.6321,0,U,69671,999,469,-.10243E-3,-.566E-4,0
STARLINK-37946,2026-143Z,2026-07-14T04:00:01.998720,15.49205710,.0001254,97.2848,239.2196,76.7100,247.6627,0,U,69672,999,469,.72983E-4,.3883E-4,0
TJS-26A,2026-144A,2026-07-12T07:10:37.543296,1.00274367,.0004208,6.9538,323.2302,347.4913,194.6526,0,U,69674,999,19,0,-.341E-5,0
CZ-7A R/B,2026-144B,2026-07-13T12:47:08.551968,2.57141579,.7113301,19.4489,315.8158,195.2718,120.0878,0,U,69675,999,52,.71481E-3,.617247E-2,-.1143E-5
